GSAT0220 (GALILEO 24)   
1 43567U 18060D   25109.03879391 -.00000075  00000+0  00000+0 0  9998
2 43567  57.2803 353.2329 0004152 314.4932  45.5211  1.70475677 41947
BEIDOU-3 M13            
1 43622U 18072A   25110.41549859  .00000027  00000+0  00000+0 0  9996
2 43622  56.2537  76.6512 0008858 309.8067  50.0990  1.86231270 44782
BEIDOU-3 M14            
1 43623U 18072B   25110.28097862  .00000026  00000+0  00000+0 0  9993
2 43623  56.2554  76.6492 0006760 331.4987  28.4477  1.86231307 44770
GPS BIII-1              
1 43873U 18109A   25111.20883644  .00000079  00000+0  00000+0 0  9993
2 43873  55.4373 108.8509 0033319 197.9603 157.0123  2.00567959 46562
METEOR-M2 2             
1 44387U 19038A   25111.17919714  .00000246  00000+0  12663-3 0  9998
2 44387  98.8715  88.3839 0001968 122.2966 237.8403 14.24190013301227
GPS BIII-2              
1 44506U 19056A   25109.73305500 -.00000072  00000+0  00000+0 0  9998
2 44506  55.7968 347.9501 0050102 193.2008  77.4103  2.00561491 41578
BEIDOU-3 M24            
1 44542U 19061A   25110.12192856  .00000010  00000+0  00000+0 0  9998
2 44542  54.4130 196.9969 0007561   1.7186 358.3318  1.86228957 37918
BEIDOU-3 M23            
1 44543U 19061B   25110.35381462  .00000010  00000+0  00000+0 0  9997
2 44543  54.4116 196.9580 0004526 345.5186  82.7061  1.86229250 37920
BEIDOU-3 M22            
1 44793U 19078A   25109.96483335 -.00000032  00000+0  00000+0 0  9994
2 44793  54.3156 314.6755 0007042  35.5039 324.5673  1.86232134 36775
BEIDOU-3 M21            
1 44794U 19078B   25110.09696967 -.00000032  00000+0  00000+0 0  9998
2 44794  54.2888 314.6405 0005007  32.9940 327.0616  1.86227777 36772
ELEKTRO-L 3             
1 44903U 19095A   25111.11890444 -.00000093  00000+0  00000+0 0  9996
2 44903   0.0487 352.7946 0000931  46.7319 288.7685  1.00271458 19451
GPS BIII-3              
1 45854U 20041A   25110.19003002 -.00000042  00000+0  00000+0 0  9992
2 45854  56.3739  45.4034 0051797 199.6254 344.0178  2.00567708 35556
COSMOS 2547             
1 46805U 20075A   25110.60734586  .00000010  00000+0  00000+0 0  9994
2 46805  64.5954 206.5831 0007608 236.6312 123.3297  2.13100419 34901
GPS BIII-4              
1 46826U 20078A   25111.01320189 -.00000002  00000+0  00000+0 0  9998
2 46826  54.0765 227.9059 0057332 200.1379 187.8650  2.00558328 33038
GSAT0223 (GALILEO 27)   
1 49809U 21116A   25110.35800564 -.00000073  00000+0  00000+0 0  9990
2 49809  57.2701 353.0897 0000632 267.3371 272.9077  1.70475633 20977
GSAT0224 (GALILEO 28)   
1 49810U 21116B   25110.75751049 -.00000072  00000+0  00000+0 0  9998
2 49810  57.2707 353.0774 0000456 348.2169 189.7599  1.70475677 21004
GOES 18                 
1 51850U 22021A   25111.00524916  .00000100  00000+0  00000+0 0  9992
2 51850   0.0058 106.4473 0000499 359.8274 327.9689  1.00273600 11576
COSMOS 2557 (706K)      
1 52984U 22075A   25109.36661726 -.00000029  00000+0  00000+0 0  9998
2 52984  64.5350 329.3814 0010919 284.7596  75.1674  2.13102019 21680
METEOR-M2 3             
1 57166U 23091A   25111.16619691  .00000045  00000+0  38640-4 0  9992
2 57166  98.6658 168.3672 0003197 331.6024  28.4980 14.23993398 94455
COSMOS 2569 (703K)      
1 57517U 23114A   25110.45293082  .00000063  00000+0  00000+0 0  9995
2 57517  65.0673  86.9017 0012786 295.2167  64.6456  2.13103855 13251
METEOR-M2 4             
1 59051U 24039A   25111.19146972  .00000106  00000+0  67122-4 0  9995
2 59051  98.6452  72.2584 0006309 319.9426  40.1286 14.22358994 59277
GSAT0225 (GALILEO 29)   
1 59598U 24079A   25110.48008563  .00000068  00000+0  00000+0 0  9993
2 59598  54.8640 112.9045 0003145 259.2280 100.4514  1.70474737  6100
GSAT0227 (GALILEO 30)   
1 59600U 24079C   25110.07740312  .00000066  00000+0  00000+0 0  9995
2 59600  54.8577 112.9151 0000472 313.3860  46.6313  1.70474649  6152
GSAT0232 (GALILEO 32)   
1 61182U 24167A   25110.40974281  .00000009  00000+0  00000+0 0  9999
2 61182  55.3255 232.9125 0003334 201.7281 197.3367  1.70474274  3671
GSAT0226 (GALILEO 31)   
1 61183U 24167B   25110.76237483  .00000008  00000+0  00000+0 0  9994
2 61183  55.3237 232.9085 0001859 164.3664 203.6853  1.70474351  3662
